{
  "norad_id": 58346,
  "name": "O3B MPOWER F5",
  "history": [
    {
      "epoch": "2026-03-28T13:15:45.221472",
      "apogee_km": 8071.996632357678,
      "perigee_km": 8059.776988214176,
      "latitude_deg": -0.021310442282398142,
      "longitude_deg": 67.65024608001113,
      "semi_major_axis_km": 14444.023810285926,
      "eccentricity": 0.000423,
      "inclination_deg": 0.042,
      "raan_deg": 7.7471,
      "arg_perigee_deg": 7.8909,
      "mean_anomaly_deg": 344.3705,
      "mean_motion_rev_day": 5.00115677
    }
  ]
}